OBJECT C                
1 57582U 23117C   24225.19869988  .00017536  00000+0  88540-3 0  9993
2 57582  97.4831 296.5238 0012121 100.7106 259.5492 15.17095774 55673
